[{"OBJECT_NAME":"STARLINK-30084","OBJECT_ID":"2023-079C","EPOCH":"2026-03-09T22:00:01.999584","MEAN_MOTION":15.23505566,"ECCENTRICITY":0.00011469,"INCLINATION":43.0023,"RA_OF_ASC_NODE":104.9996,"ARG_OF_PERICENTER":274.1304,"MEAN_ANOMALY":27.2312,"EPHEMERIS_TYPE":0,"CLASSIFICATION_TYPE":"U","NORAD_CAT_ID":56825,"ELEMENT_SET_NO":999,"REV_AT_EPOCH":578,"BSTAR":0.031721463,"MEAN_MOTION_DOT":0.00827712,"MEAN_MOTION_DDOT":0},{"OBJECT_NAME":"YAOGAN-42 01","OBJECT_ID":"2024-063A","EPOCH":"2026-03-09T23:33:22.802688","MEAN_MOTION":15.23115119,"ECCENTRICITY":0.00025743,"INCLINATION":34.9985,"RA_OF_ASC_NODE":29.746,"ARG_OF_PERICENTER":171.5443,"MEAN_ANOMALY":188.5315,"EPHEMERIS_TYPE":0,"CLASSIFICATION_TYPE":"U","NORAD_CAT_ID":59395,"ELEMENT_SET_NO":999,"REV_AT_EPOCH":10771,"BSTAR":0.00052016126,"MEAN_MOTION_DOT":0.00012558,"MEAN_MOTION_DDOT":0}]
